[{"OBJECT_NAME":"NVS-02 (IRNSS-1K)","OBJECT_ID":"2025-020A","EPOCH":"2026-03-08T21:57:08.579232","MEAN_MOTION":2.17729003,"ECCENTRICITY":0.73499081,"INCLINATION":20.836,"RA_OF_ASC_NODE":296.0549,"ARG_OF_PERICENTER":82.7398,"MEAN_ANOMALY":347.8142,"EPHEMERIS_TYPE":0,"CLASSIFICATION_TYPE":"U","NORAD_CAT_ID":62850,"ELEMENT_SET_NO":999,"REV_AT_EPOCH":879,"BSTAR":0.00096575345,"MEAN_MOTION_DOT":1.448e-5,"MEAN_MOTION_DDOT":0},{"OBJECT_NAME":"STARLINK-36718","OBJECT_ID":"2026-025Y","EPOCH":"2026-03-09T22:00:01.999584","MEAN_MOTION":15.75188158,"ECCENTRICITY":0.00015448,"INCLINATION":97.2849,"RA_OF_ASC_NODE":180.6886,"ARG_OF_PERICENTER":93.1958,"MEAN_ANOMALY":48.5733,"EPHEMERIS_TYPE":0,"CLASSIFICATION_TYPE":"U","NORAD_CAT_ID":67715,"ELEMENT_SET_NO":999,"REV_AT_EPOCH":589,"BSTAR":0.00016585303,"MEAN_MOTION_DOT":0.00024678,"MEAN_MOTION_DDOT":0}]
